[
  {
    "COMMENT": "GENERATED VIA SPACETRACK.ORG API",
    "ORIGINATOR": "18 SPCS",
    "NORAD_CAT_ID": "48621",
    "OBJECT_NAME": "HAIYANG 2D",
    "OBJECT_TYPE": "PAYLOAD",
    "CLASSIFICATION_TYPE": "U",
    "INTLDES": "21043A",
    "EPOCH": "2021-11-14 08:30:34",
    "EPOCH_MICROSECONDS": "896384",
    "MEAN_MOTION": "13.83372849",
    "ECCENTRICITY": "0.0006801",
    "INCLINATION": "65.9953",
    "RA_OF_ASC_NODE": "156.9453",
    "ARG_OF_PERICENTER": "265.2334",
    "MEAN_ANOMALY": "94.7957",
    "EPHEMERIS_TYPE": "0",
    "ELEMENT_SET_NO": "999",
    "REV_AT_EPOCH": "2478",
    "BSTAR": "0.000016835",
    "MEAN_MOTION_DOT": "-0.00000063",
    "MEAN_MOTION_DDOT": "0",
    "FILE": "3214976",
    "TLE_LINE0": "0 HAIYANG 2D",
    "TLE_LINE1": "1 48621U 21043A   21318.35457056 -.00000063  00000-0  16835-4 0  9998",
    "TLE_LINE2": "2 48621  65.9953 156.9453 0006801 265.2334  94.7957 13.83372849 24783",
    "OBJECT_ID": "2021-043A",
    "OBJECT_NUMBER": "48621",
    "SEMIMAJOR_AXIS": "7330.085",
    "PERIOD": "104.093",
    "APOGEE": "956.935",
    "PERIGEE": "946.965",
    "DECAYED": "0"
  },
  {
    "COMMENT": "GENERATED VIA SPACETRACK.ORG API",
    "ORIGINATOR": "18 SPCS",
    "NORAD_CAT_ID": "48621",
    "OBJECT_NAME": "HAIYANG 2D",
    "OBJECT_TYPE": "PAYLOAD",
    "CLASSIFICATION_TYPE": "U",
    "INTLDES": "21043A",
    "EPOCH": "2021-11-14 18:55:12",
    "EPOCH_MICROSECONDS": "573408",
    "MEAN_MOTION": "13.83372687",
    "ECCENTRICITY": "0.0006776",
    "INCLINATION": "65.9953",
    "RA_OF_ASC_NODE": "155.8654",
    "ARG_OF_PERICENTER": "265.4631",
    "MEAN_ANOMALY": "94.566",
    "EPHEMERIS_TYPE": "0",
    "ELEMENT_SET_NO": "999",
    "REV_AT_EPOCH": "2484",
    "BSTAR": "0.0000049976",
    "MEAN_MOTION_DOT": "-0.00000076",
    "MEAN_MOTION_DDOT": "0",
    "FILE": "3215154",
    "TLE_LINE0": "0 HAIYANG 2D",
    "TLE_LINE1": "1 48621U 21043A   21318.78833997 -.00000076  00000-0  49976-5 0  9994",
    "TLE_LINE2": "2 48621  65.9953 155.8654 0006776 265.4631  94.5660 13.83372687 24843",
    "OBJECT_ID": "2021-043A",
    "OBJECT_NUMBER": "48621",
    "SEMIMAJOR_AXIS": "7330.086",
    "PERIOD": "104.093",
    "APOGEE": "956.917",
    "PERIGEE": "946.984",
    "DECAYED": "0"
  },
  {
    "COMMENT": "GENERATED VIA SPACETRACK.ORG API",
    "ORIGINATOR": "18 SPCS",
    "NORAD_CAT_ID": "48621",
    "OBJECT_NAME": "HAIYANG 2D",
    "OBJECT_TYPE": "PAYLOAD",
    "CLASSIFICATION_TYPE": "U",
    "INTLDES": "21043A",
    "EPOCH": "2021-11-14 18:55:12",
    "EPOCH_MICROSECONDS": "573408",
    "MEAN_MOTION": "13.83372687",
    "ECCENTRICITY": "0.0006776",
    "INCLINATION": "65.9953",
    "RA_OF_ASC_NODE": "155.8654",
    "ARG_OF_PERICENTER": "265.4631",
    "MEAN_ANOMALY": "94.566",
    "EPHEMERIS_TYPE": "0",
    "ELEMENT_SET_NO": "999",
    "REV_AT_EPOCH": "2484",
    "BSTAR": "0.0000049976",
    "MEAN_MOTION_DOT": "-0.00000076",
    "MEAN_MOTION_DDOT": "0",
    "FILE": "3215179",
    "TLE_LINE0": "0 HAIYANG 2D",
    "TLE_LINE1": "1 48621U 21043A   21318.78833997 -.00000076  00000-0  49976-5 0  9994",
    "TLE_LINE2": "2 48621  65.9953 155.8654 0006776 265.4631  94.5660 13.83372687 24843",
    "OBJECT_ID": "2021-043A",
    "OBJECT_NUMBER": "48621",
    "SEMIMAJOR_AXIS": "7330.086",
    "PERIOD": "104.093",
    "APOGEE": "956.917",
    "PERIGEE": "946.984",
    "DECAYED": "0"
  },
  {
    "COMMENT": "GENERATED VIA SPACETRACK.ORG API",
    "ORIGINATOR": "18 SPCS",
    "NORAD_CAT_ID": "48621",
    "OBJECT_NAME": "HAIYANG 2D",
    "OBJECT_TYPE": "PAYLOAD",
    "CLASSIFICATION_TYPE": "U",
    "INTLDES": "21043A",
    "EPOCH": "2021-11-15 03:35:43",
    "EPOCH_MICROSECONDS": "943424",
    "MEAN_MOTION": "13.83372656",
    "ECCENTRICITY": "0.0006801",
    "INCLINATION": "65.9953",
    "RA_OF_ASC_NODE": "154.9655",
    "ARG_OF_PERICENTER": "265.4563",
    "MEAN_ANOMALY": "94.5729",
    "EPHEMERIS_TYPE": "0",
    "ELEMENT_SET_NO": "999",
    "REV_AT_EPOCH": "2489",
    "BSTAR": "0.00000071314",
    "MEAN_MOTION_DOT": "-0.0000008",
    "MEAN_MOTION_DDOT": "0",
    "FILE": "3215408",
    "TLE_LINE0": "0 HAIYANG 2D",
    "TLE_LINE1": "1 48621U 21043A   21319.14981416 -.00000080  00000-0  71314-6 0  9992",
    "TLE_LINE2": "2 48621  65.9953 154.9655 0006801 265.4563  94.5729 13.83372656 24894",
    "OBJECT_ID": "2021-043A",
    "OBJECT_NUMBER": "48621",
    "SEMIMAJOR_AXIS": "7330.086",
    "PERIOD": "104.093",
    "APOGEE": "956.936",
    "PERIGEE": "946.965",
    "DECAYED": "0"
  },
  {
    "COMMENT": "GENERATED VIA SPACETRACK.ORG API",
    "ORIGINATOR": "18 SPCS",
    "NORAD_CAT_ID": "48621",
    "OBJECT_NAME": "HAIYANG 2D",
    "OBJECT_TYPE": "PAYLOAD",
    "CLASSIFICATION_TYPE": "U",
    "INTLDES": "21043A",
    "EPOCH": "2021-11-15 12:16:15",
    "EPOCH_MICROSECONDS": "303072",
    "MEAN_MOTION": "13.83372669",
    "ECCENTRICITY": "0.0006804",
    "INCLINATION": "65.9953",
    "RA_OF_ASC_NODE": "154.0657",
    "ARG_OF_PERICENTER": "265.3766",
    "MEAN_ANOMALY": "94.6524",
    "EPHEMERIS_TYPE": "0",
    "ELEMENT_SET_NO": "999",
    "REV_AT_EPOCH": "2494",
    "BSTAR": "0.00000027198",
    "MEAN_MOTION_DOT": "-0.00000081",
    "MEAN_MOTION_DDOT": "0",
    "FILE": "3215671",
    "TLE_LINE0": "0 HAIYANG 2D",
    "TLE_LINE1": "1 48621U 21043A   21319.51128823 -.00000081  00000-0  27198-6 0  9990",
    "TLE_LINE2": "2 48621  65.9953 154.0657 0006804 265.3766  94.6524 13.83372669 24948",
    "OBJECT_ID": "2021-043A",
    "OBJECT_NUMBER": "48621",
    "SEMIMAJOR_AXIS": "7330.086",
    "PERIOD": "104.093",
    "APOGEE": "956.938",
    "PERIGEE": "946.963",
    "DECAYED": "0"
  },
  {
    "COMMENT": "GENERATED VIA SPACETRACK.ORG API",
    "ORIGINATOR": "18 SPCS",
    "NORAD_CAT_ID": "48621",
    "OBJECT_NAME": "HAIYANG 2D",
    "OBJECT_TYPE": "PAYLOAD",
    "CLASSIFICATION_TYPE": "U",
    "INTLDES": "21043A",
    "EPOCH": "2021-11-15 12:16:15",
    "EPOCH_MICROSECONDS": "303072",
    "MEAN_MOTION": "13.83372669",
    "ECCENTRICITY": "0.0006804",
    "INCLINATION": "65.9953",
    "RA_OF_ASC_NODE": "154.0657",
    "ARG_OF_PERICENTER": "265.3766",
    "MEAN_ANOMALY": "94.6524",
    "EPHEMERIS_TYPE": "0",
    "ELEMENT_SET_NO": "999",
    "REV_AT_EPOCH": "2494",
    "BSTAR": "0.00000027198",
    "MEAN_MOTION_DOT": "-0.00000081",
    "MEAN_MOTION_DDOT": "0",
    "FILE": "3215681",
    "TLE_LINE0": "0 HAIYANG 2D",
    "TLE_LINE1": "1 48621U 21043A   21319.51128823 -.00000081  00000-0  27198-6 0  9990",
    "TLE_LINE2": "2 48621  65.9953 154.0657 0006804 265.3766  94.6524 13.83372669 24948",
    "OBJECT_ID": "2021-043A",
    "OBJECT_NUMBER": "48621",
    "SEMIMAJOR_AXIS": "7330.086",
    "PERIOD": "104.093",
    "APOGEE": "956.938",
    "PERIGEE": "946.963",
    "DECAYED": "0"
  },
  {
    "COMMENT": "GENERATED VIA SPACETRACK.ORG API",
    "ORIGINATOR": "18 SPCS",
    "NORAD_CAT_ID": "48621",
    "OBJECT_NAME": "HAIYANG 2D",
    "OBJECT_TYPE": "PAYLOAD",
    "CLASSIFICATION_TYPE": "U",
    "INTLDES": "21043A",
    "EPOCH": "2021-11-16 03:53:11",
    "EPOCH_MICROSECONDS": "778432",
    "MEAN_MOTION": "13.83372656",
    "ECCENTRICITY": "0.0006816",
    "INCLINATION": "65.9952",
    "RA_OF_ASC_NODE": "152.4459",
    "ARG_OF_PERICENTER": "265.2428",
    "MEAN_ANOMALY": "94.7867",
    "EPHEMERIS_TYPE": "0",
    "ELEMENT_SET_NO": "999",
    "REV_AT_EPOCH": "2503",
    "BSTAR": "-0.00000034247",
    "MEAN_MOTION_DOT": "-0.00000082",
    "MEAN_MOTION_DDOT": "0",
    "FILE": "3216454",
    "TLE_LINE0": "0 HAIYANG 2D",
    "TLE_LINE1": "1 48621U 21043A   21320.16194188 -.00000082  00000-0 -34247-6 0  9995",
    "TLE_LINE2": "2 48621  65.9952 152.4459 0006816 265.2428  94.7867 13.83372656 25034",
    "OBJECT_ID": "2021-043A",
    "OBJECT_NUMBER": "48621",
    "SEMIMAJOR_AXIS": "7330.086",
    "PERIOD": "104.093",
    "APOGEE": "956.947",
    "PERIGEE": "946.954",
    "DECAYED": "0"
  },
  {
    "COMMENT": "GENERATED VIA SPACETRACK.ORG API",
    "ORIGINATOR": "18 SPCS",
    "NORAD_CAT_ID": "48621",
    "OBJECT_NAME": "HAIYANG 2D",
    "OBJECT_TYPE": "PAYLOAD",
    "CLASSIFICATION_TYPE": "U",
    "INTLDES": "21043A",
    "EPOCH": "2021-11-16 12:33:43",
    "EPOCH_MICROSECONDS": "137216",
    "MEAN_MOTION": "13.83372648",
    "ECCENTRICITY": "0.000683",
    "INCLINATION": "65.9952",
    "RA_OF_ASC_NODE": "151.546",
    "ARG_OF_PERICENTER": "265.2868",
    "MEAN_ANOMALY": "94.7423",
    "EPHEMERIS_TYPE": "0",
    "ELEMENT_SET_NO": "999",
    "REV_AT_EPOCH": "2508",
    "BSTAR": "-0.0000029547",
    "MEAN_MOTION_DOT": "-0.00000085",
    "MEAN_MOTION_DDOT": "0",
    "FILE": "3216791",
    "TLE_LINE0": "0 HAIYANG 2D",
    "TLE_LINE1": "1 48621U 21043A   21320.52341594 -.00000085  00000-0 -29547-5 0  9999",
    "TLE_LINE2": "2 48621  65.9952 151.5460 0006830 265.2868  94.7423 13.83372648 25084",
    "OBJECT_ID": "2021-043A",
    "OBJECT_NUMBER": "48621",
    "SEMIMAJOR_AXIS": "7330.086",
    "PERIOD": "104.093",
    "APOGEE": "956.957",
    "PERIGEE": "946.944",
    "DECAYED": "0"
  }
]